{
  "norad_id": 61609,
  "name": "ONEWEB-0704",
  "history": [
    {
      "epoch": "2026-03-28T21:27:28.586304Z",
      "apogee_km": 1223.6785967087908,
      "perigee_km": 1219.773483084371,
      "latitude_deg": 4.5041197108559615e-05,
      "longitude_deg": -95.95509017507636,
      "height_km": 1223.738455249941,
      "semi_major_axis_km": 7599.863039896581,
      "eccentricity": 0.00025692,
      "inclination_deg": 87.8822,
      "raan_deg": 52.222,
      "arg_perigee_deg": 63.5035,
      "mean_anomaly_deg": 296.6356,
      "mean_motion_rev_day": 13.10370518
    },
    {
      "epoch": "2026-03-29T04:47:17.847168Z",
      "apogee_km": 1223.6672324703486,
      "perigee_km": 1219.7867419184868,
      "latitude_deg": -2.594350618169842e-06,
      "longitude_deg": 153.72770774525736,
      "height_km": 1223.7335487644048,
      "semi_major_axis_km": 7599.863987194417,
      "eccentricity": 0.0002553,
      "inclination_deg": 87.8824,
      "raan_deg": 52.1611,
      "arg_perigee_deg": 63.1269,
      "mean_anomaly_deg": 297.0119,
      "mean_motion_rev_day": 13.10370273
    },
    {
      "epoch": "2026-03-30T04:36:42.744960Z",
      "apogee_km": 1223.6544578436597,
      "perigee_km": 1219.7922088222595,
      "latitude_deg": 1.25663809838561e-06,
      "longitude_deg": 155.1979679393587,
      "height_km": 1223.7107960941453,
      "semi_major_axis_km": 7599.860333332959,
      "eccentricity": 0.0002541,
      "inclination_deg": 87.8828,
      "raan_deg": 51.9635,
      "arg_perigee_deg": 62.3502,
      "mean_anomaly_deg": 297.7883,
      "mean_motion_rev_day": 13.10371218
    }
  ]
}